[{"OBJECT_NAME":"COSMOS 2566","OBJECT_ID":"2022-163C","EPOCH":"2026-03-09T21:48:06.708672","MEAN_MOTION":13.97695206,"ECCENTRICITY":0.0007804,"INCLINATION":67.1457,"RA_OF_ASC_NODE":343.8663,"ARG_OF_PERICENTER":202.0486,"MEAN_ANOMALY":158.0264,"EPHEMERIS_TYPE":0,"CLASSIFICATION_TYPE":"U","NORAD_CAT_ID":54383,"ELEMENT_SET_NO":999,"REV_AT_EPOCH":16669,"BSTAR":7.7007e-5,"MEAN_MOTION_DOT":3.3e-7,"MEAN_MOTION_DDOT":0},{"OBJECT_NAME":"FENGYUN 1C DEB","OBJECT_ID":"1999-025DMY","EPOCH":"2026-03-09T11:51:51.380352","MEAN_MOTION":14.15647153,"ECCENTRICITY":0.01239137,"INCLINATION":98.2683,"RA_OF_ASC_NODE":319.1979,"ARG_OF_PERICENTER":236.543,"MEAN_ANOMALY":122.385,"EPHEMERIS_TYPE":0,"CLASSIFICATION_TYPE":"U","NORAD_CAT_ID":35168,"ELEMENT_SET_NO":999,"REV_AT_EPOCH":59151,"BSTAR":0.00027878707,"MEAN_MOTION_DOT":5.48e-6,"MEAN_MOTION_DDOT":0}]
